CSS (TIANHE)            
1 48274U 21035A   24136.45568597  .00049347  00000+0  50293-3 0  9999
2 48274  41.4679 283.0386 0003337 343.6906  16.3826 15.64260488173972
